NORAD_CAT_ID,OBJECT_NAME,OBJECT_TYPE,EPOCH,MEAN_MOTION,ECCENTRICITY,INCLINATION,RA_OF_ASC_NODE,ARG_OF_PERICENTER,MEAN_ANOMALY,BSTAR,MEAN_MOTION_DOT,MEAN_MOTION_DDOT,TLE_LINE0,TLE_LINE1,TLE_LINE2,SEMIMAJOR_AXIS,PERIOD,APOGEE,PERIGEE,DECAYED
51751.0,STARLINK-3506,PAYLOAD,2022-06-11 14:00:01,15.08818569,0.0001474,53.2172,326.2942,50.9794,310.5758,0.0012246,0.00019244,0.0,0 STARLINK-3506,1 51751U 22016AP  22162.58334491  .00019244  00000-0  12246-2 0  9997,2 51751  53.2172 326.2942 0001474  50.9794 310.5758 15.08818569 18424,6917.946,95.439,540.831,538.7909999999998,0.0
51751.0,STARLINK-3506,PAYLOAD,2022-06-11 22:00:00,15.0882634,0.0001603,53.2165,324.8058,45.8354,327.3107,0.0030556,0.0004866,0.0,0 STARLINK-3506,1 51751U 22016AP  22162.91667824  .00048660  00000-0  30556-2 0  9991,2 51751  53.2165 324.8058 0001603  45.8354 327.3107 15.08826340  1306,6917.922,95.438,540.896,538.678,0.0
51751.0,STARLINK-3506,PAYLOAD,2022-06-12 14:00:01,15.08852587,0.0001636,53.2169,321.8116,53.9785,342.3774,-0.0015197,-0.00024401,0.0,0 STARLINK-3506,1 51751U 22016AP  22163.58334491 -.00024401  00000-0 -15197-2 0  9999,2 51751  53.2169 321.8116 0001636  53.9785 342.3774 15.08852587  1305,6917.842,95.437,540.839,538.575,0.0
51751.0,STARLINK-3506,PAYLOAD,2022-06-12 22:00:00,15.08833192,0.0001774,53.2169,320.3162,48.2183,359.7392,0.0015105,0.00023829,0.0,0 STARLINK-3506,1 51751U 22016AP  22163.91667824  .00023829  00000-0  15105-2 0  9995,2 51751  53.2169 320.3162 0001774  48.2183 359.7392 15.08833192 18635,6917.901,95.438,540.993,538.539,0.0
51751.0,STARLINK-3506,PAYLOAD,2022-06-13 14:00:01,15.08854613,0.0001793,53.2175,317.3222,55.5167,15.6337,-0.0012202,-0.00019663,0.0,0 STARLINK-3506,1 51751U 22016AP  22164.58334491 -.00019663  00000-0 -12202-2 0  9998,2 51751  53.2175 317.3222 0001793  55.5167  15.6337 15.08854613 18738,6917.8359999999975,95.437,540.941,538.46,0.0
51751.0,STARLINK-3506,PAYLOAD,2022-06-13 22:00:00,15.0884917,0.0001845,53.2173,315.8267,48.8256,33.9289,-0.00018423,-3.2200000000000003e-05,0.0,0 STARLINK-3506,1 51751U 22016AP  22164.91667824 -.00003220  00000-0 -18423-3 0  9998,2 51751  53.2173 315.8267 0001845  48.8256  33.9289 15.08849170  1306,6917.852,95.437,540.994,538.441,0.0
51751.0,STARLINK-3506,PAYLOAD,2022-06-14 14:00:01,15.08842483,0.000179,53.2179,312.8331,54.3888,51.5727,-0.0018169,-0.0002909,0.0,0 STARLINK-3506,1 51751U 22016AP  22165.58334491 -.00029090  00000-0 -18169-2 0  9992,2 51751  53.2179 312.8331 0001790  54.3888  51.5727 15.08842483 18887,6917.873000000001,95.437,540.976,538.5,0.0
51751.0,STARLINK-3506,PAYLOAD,2022-06-14 22:00:00,15.08825701,0.0001843,53.2176,311.3375,49.4035,68.1281,7.3101e-05,8.75e-06,0.0,0 STARLINK-3506,1 51751U 22016AP  22165.91667824  .00000875  00000-0  73101-4 0  9995,2 51751  53.2176 311.3375 0001843  49.4035  68.1281 15.08825701  1306,6917.924,95.438,541.064,538.514,0.0
51751.0,STARLINK-3506,PAYLOAD,2022-06-15 14:00:01,15.08828091,0.0001675,53.218,308.3444,53.2977,87.3716,-0.0011986,-0.00019307,0.0,0 STARLINK-3506,1 51751U 22016AP  22166.58334491 -.00019307  00000-0 -11986-2 0  9993,2 51751  53.2180 308.3444 0001675  53.2977  87.3716 15.08828091 19035,6917.917,95.438,540.941,538.623,0.0
51751.0,STARLINK-3506,PAYLOAD,2022-06-15 22:00:00,15.08824259,0.0001743,53.2175,306.8486,48.1256,104.1226,0.0017659,0.00027916,0.0,0 STARLINK-3506,1 51751U 22016AP  22166.91667824  .00027916  00000-0  17659-2 0  9995,2 51751  53.2175 306.8486 0001743  48.1256 104.1226 15.08824259  1304,6917.929,95.439,540.999,538.5880000000002,0.0
51751.0,STARLINK-3506,PAYLOAD,2022-06-16 02:00:01,15.08851632,0.0001647,53.2176,306.0995,52.1769,285.8657,-0.00082342,-0.00013373,0.0,0 STARLINK-3506,1 51751U 22016AP  22167.08334491 -.00013373  00000-0 -82342-3 0  9991,2 51751  53.2176 306.0995 0001647  52.1769 285.8657 15.08851632  1309,6917.845,95.437,540.849,538.57,0.0
51751.0,STARLINK-3506,PAYLOAD,2022-06-19 14:00:01,15.08851086,0.0001676999999999,53.2162,290.3893,47.7854,232.0044,-0.0022825,-0.00036442,0.0,0 STARLINK-3506,1 51751U 22016AP  22170.58334491 -.00036442  00000-0 -22825-2 0  9991,2 51751  53.2162 290.3893 0001677  47.7854 232.0044 15.08851086  1301,6917.847,95.437,540.872,538.5509999999998,0.0
51751.0,STARLINK-3506,PAYLOAD,2022-06-19 20:00:01,15.08821962,0.0001696999999999,53.2161,289.2673,43.1253,155.3655,0.0025564,0.00040612,0.0,0 STARLINK-3506,1 51751U 22016AP  22170.83334491  .00040612  00000-0  25564-2 0  9994,2 51751  53.2161 289.2673 0001697  43.1253 155.3655 15.08821962 19672,6917.936,95.439,540.974,538.627,0.0
51751.0,STARLINK-3506,PAYLOAD,2022-06-19 22:00:00,15.08849912,0.000166,53.2161,288.8928,43.7233,247.6568,-0.00070278,-0.00011458,0.0,0 STARLINK-3506,1 51751U 22016AP  22170.91667824 -.00011458  00000-0 -70278-3 0  9993,2 51751  53.2161 288.8928 0001660  43.7233 247.6568 15.08849912  1308,6917.85,95.437,540.863,538.567,0.0
51751.0,STARLINK-3506,PAYLOAD,2022-06-20 14:00:01,15.08829906,0.0001808,53.2164,285.9001,49.2912,265.2634,-0.00035951,-6.004e-05,0.0,0 STARLINK-3506,1 51751U 22016AP  22171.58334491 -.00006004  00000-0 -35951-3 0  9998,2 51751  53.2164 285.9001 0001808  49.2912 265.2634 15.08829906  1301,6917.911,95.438,541.0269999999998,538.525,0.0
51751.0,STARLINK-3506,PAYLOAD,2022-06-20 22:00:00,15.08849293,0.0001786,53.2163,284.4034,47.0334,279.0953,-0.0013414999999999,-0.0002158,0.0,0 STARLINK-3506,1 51751U 22016AP  22171.91667824 -.00021580  00000-0 -13415-2 0  9990,2 51751  53.2163 284.4034 0001786  47.0334 279.0953 15.08849293  1307,6917.852,95.437,540.953,538.481,0.0
51751.0,STARLINK-3506,PAYLOAD,2022-06-21 06:00:00,15.0883609,0.0001646,53.2167,282.9055,53.1421,284.5957,0.0025462,0.00040463,0.0,0 STARLINK-3506,1 51751U 22016AP  22172.25001157  .00040463  00000-0  25462-2 0  9993,2 51751  53.2167 282.9055 0001646  53.1421 284.5957 15.08836090 19885,6917.892,95.438,540.896,538.619,0.0
51751.0,STARLINK-3506,PAYLOAD,2022-06-21 14:00:01,15.08850215,0.0001764,53.2167,281.4108,47.0481,302.2974,-0.0020314,-0.00032482,0.0,0 STARLINK-3506,1 51751U 22016AP  22172.58334491 -.00032482  00000-0 -20314-2 0  9994,2 51751  53.2167 281.4108 0001764  47.0481 302.2974 15.08850215 19935,6917.849,95.437,540.934,538.494,0.0
51751.0,STARLINK-3506,PAYLOAD,2022-06-21 22:00:00,15.08862555,0.0001668,53.2165,279.9139,43.299,317.6327,-0.0031569,-0.00050211,0.0,0 STARLINK-3506,1 51751U 22016AP  22172.91667824 -.00050211  00000-0 -31569-2 0  9994,2 51751  53.2165 279.9139 0001668  43.2990 317.6327 15.08862555  1310,6917.811,95.436,540.83,538.523,0.0
51751.0,STARLINK-3506,PAYLOAD,2022-06-22 14:00:01,15.08829478,0.0001829,53.2168,276.9216,48.8997,335.2114,-0.0001771999999999,-3.106e-05,0.0,0 STARLINK-3506,1 51751U 22016AP  22173.58334491 -.00003106  00000-0 -17720-3 0  9994,2 51751  53.2168 276.9216 0001829  48.8997 335.2114 15.08829478  1309,6917.913000000001,95.438,541.043,538.512,0.0
51751.0,STARLINK-3506,PAYLOAD,2022-06-22 16:00:00,15.08814529,0.0001834,53.2169,276.5478,47.5952,69.4154,0.0020688,0.00032768,0.0,0 STARLINK-3506,1 51751U 22016AP  22173.66667824  .00032768  00000-0  20688-2 0  9992,2 51751  53.2169 276.5478 0001834  47.5952  69.4154 15.08814529 20109,6917.958000000001,95.439,541.092,538.554,0.0
51751.0,STARLINK-3506,PAYLOAD,2022-06-22 22:00:00,15.08854865,0.0001764,53.2166,275.4245,47.9898,347.7018,-0.0014714,-0.00023639,0.0,0 STARLINK-3506,1 51751U 22016AP  22173.91667824 -.00023639  00000-0 -14714-2 0  9992,2 51751  53.2166 275.4245 0001764  47.9898 347.7018 15.08854865  1300,6917.835,95.437,540.92,538.48,0.0
51751.0,STARLINK-3506,PAYLOAD,2022-06-23 14:00:01,15.08863169,0.0001751,53.2167,272.4325,47.7698,11.1278,-0.003162,-0.00050293,0.0,0 STARLINK-3506,1 51751U 22016AP  22174.58334491 -.00050293  00000-0 -31620-2 0  9998,2 51751  53.2167 272.4325 0001751  47.7698  11.1278 15.08863169 20240,6917.81,95.436,540.886,538.4630000000002,0.0
51751.0,STARLINK-3506,PAYLOAD,2022-06-23 22:00:00,15.08847606,0.0001629,53.2164,270.9352,46.27,24.2279,-0.0016029,-0.00025713,0.0,0 STARLINK-3506,1 51751U 22016AP  22174.91667824 -.00025713  00000-0 -16029-2 0  9999,2 51751  53.2164 270.9352 0001629  46.2700  24.2279 15.08847606  1302,6917.857,95.437,540.849,538.595,0.0
51751.0,STARLINK-3506,PAYLOAD,2022-06-24 06:00:02,15.08830841,0.0001531999999999,53.2166,269.4379,53.2578,28.8923,0.0018254,0.00028875,0.0,0 STARLINK-3506,1 51751U 22016AP  22175.25002315  .00028875  00000-0  18254-2 0  9997,2 51751  53.2166 269.4379 0001532  53.2578  28.8923 15.08830841 20344,6917.908,95.438,540.8330000000002,538.714,0.0
51751.0,STARLINK-3506,PAYLOAD,2022-06-24 14:00:01,15.088506900000002,0.0001737,53.2165,267.9435,47.9577,45.7242,-0.0021622,-0.00034545,0.0,0 STARLINK-3506,1 51751U 22016AP  22175.58334491 -.00034545  00000-0 -21622-2 0  9992,2 51751  53.2165 267.9435 0001737  47.9577  45.7242 15.08850690  1306,6917.848000000001,95.437,540.914,538.511,0.0
51751.0,STARLINK-3506,PAYLOAD,2022-06-24 22:00:01,15.0883816,0.0001708,53.2161,266.4461,50.119,55.2174,-0.0022442,-0.00035826,0.0,0 STARLINK-3506,1 51751U 22016AP  22175.91668981 -.00035826  00000-0 -22442-2 0  9997,2 51751  53.2161 266.4461 0001708  50.1190  55.2174 15.08838160 20444,6917.886,95.438,540.933,538.569,0.0
51751.0,STARLINK-3506,PAYLOAD,2022-06-25 14:00:01,15.0882081,0.0001634,53.2162,263.4547,43.5413,84.8629,0.00075746,0.00011781,0.0,0 STARLINK-3506,1 51751U 22016AP  22176.58334491  .00011781  00000-0  75746-3 0  9995,2 51751  53.2162 263.4547 0001634  43.5413  84.8629 15.08820810  1309,6917.939,95.439,540.934,538.674,0.0
51751.0,STARLINK-3506,PAYLOAD,2022-06-25 16:00:00,15.08806332,0.0001654,53.2162,263.0808,41.4101,179.8929,0.0030548,0.0004862,0.0,0 STARLINK-3506,1 51751U 22016AP  22176.66667824  .00048620  00000-0  30548-2 0  9995,2 51751  53.2162 263.0808 0001654  41.4101 179.8929 15.08806332 20557,6917.983,95.44,540.993,538.7040000000002,0.0
